{
  "norad_id": 64757,
  "name": "STARLINK-34401",
  "history": [
    {
      "epoch": "2026-03-28T14:35:14.121312Z",
      "apogee_km": 476.5309118416226,
      "perigee_km": 473.70325920593496,
      "latitude_deg": 2.0703117358943444e-05,
      "longitude_deg": 110.37126349925262,
      "height_km": 476.0974109652444,
      "semi_major_axis_km": 6853.2540855237785,
      "eccentricity": 0.0002063,
      "inclination_deg": 53.1596,
      "raan_deg": 155.2059,
      "arg_perigee_deg": 93.3822,
      "mean_anomaly_deg": 266.7415,
      "mean_motion_rev_day": 15.30232817
    }
  ]
}